[{"OBJECT_NAME":"STARLINK-1612","OBJECT_ID":"2020-057AZ","EPOCH":"2026-01-16T23:22:03.084384","MEAN_MOTION":15.61367264,"ECCENTRICITY":0.00012425,"INCLINATION":53.0429,"RA_OF_ASC_NODE":107.7465,"ARG_OF_PERICENTER":54.6188,"MEAN_ANOMALY":305.494,"EPHEMERIS_TYPE":0,"CLASSIFICATION_TYPE":"U","NORAD_CAT_ID":46164,"ELEMENT_SET_NO":999,"REV_AT_EPOCH":30067,"BSTAR":0.00070840714,"MEAN_MOTION_DOT":0.00061405,"MEAN_MOTION_DDOT":0},{"OBJECT_NAME":"STARLINK-1626","OBJECT_ID":"2020-057BC","EPOCH":"2026-01-16T20:42:35.112960","MEAN_MOTION":15.42537187,"ECCENTRICITY":0.00015847,"INCLINATION":53.0521,"RA_OF_ASC_NODE":182.4155,"ARG_OF_PERICENTER":267.763,"MEAN_ANOMALY":92.3193,"EPHEMERIS_TYPE":0,"CLASSIFICATION_TYPE":"U","NORAD_CAT_ID":46167,"ELEMENT_SET_NO":999,"REV_AT_EPOCH":29835,"BSTAR":0.0028978101,"MEAN_MOTION_DOT":0.00129477,"MEAN_MOTION_DDOT":0},{"OBJECT_NAME":"STARLINK-1627","OBJECT_ID":"2020-057BD","EPOCH":"2026-01-17T00:00:02.000160","MEAN_MOTION":15.5126748,"ECCENTRICITY":0.0007035,"INCLINATION":53.0486,"RA_OF_ASC_NODE":117.3571,"ARG_OF_PERICENTER":227.0142,"MEAN_ANOMALY":126.4937,"EPHEMERIS_TYPE":0,"CLASSIFICATION_TYPE":"U","NORAD_CAT_ID":46168,"ELEMENT_SET_NO":999,"REV_AT_EPOCH":580,"BSTAR":0.0017804609,"MEAN_MOTION_DOT":0.00107239,"MEAN_MOTION_DDOT":0},{"OBJECT_NAME":"STARLINK-1633","OBJECT_ID":"2020-057BG","EPOCH":"2026-01-17T00:00:02.000160","MEAN_MOTION":15.46367849,"ECCENTRICITY":0.00095656,"INCLINATION":53.0477,"RA_OF_ASC_NODE":148.1515,"ARG_OF_PERICENTER":164.4593,"MEAN_ANOMALY":118.1997,"EPHEMERIS_TYPE":0,"CLASSIFICATION_TYPE":"U","NORAD_CAT_ID":46171,"ELEMENT_SET_NO":999,"REV_AT_EPOCH":590,"BSTAR":0.0017102742,"MEAN_MOTION_DOT":0.00086524,"MEAN_MOTION_DDOT":0},{"OBJECT_NAME":"STARLINK-1635","OBJECT_ID":"2020-057BH","EPOCH":"2026-01-17T00:00:02.000160","MEAN_MOTION":15.49167593,"ECCENTRICITY":0.00078336,"INCLINATION":53.0487,"RA_OF_ASC_NODE":147.5314,"ARG_OF_PERICENTER":186.9763,"MEAN_ANOMALY":338.0065,"EPHEMERIS_TYPE":0,"CLASSIFICATION_TYPE":"U","NORAD_CAT_ID":46172,"ELEMENT_SET_NO":999,"REV_AT_EPOCH":589,"BSTAR":0.001658037,"MEAN_MOTION_DOT":0.00092502,"MEAN_MOTION_DDOT":0},{"OBJECT_NAME":"STARLINK-1640","OBJECT_ID":"2020-057BJ","EPOCH":"2026-01-17T00:00:02.000160","MEAN_MOTION":15.39242809,"ECCENTRICITY":6.204e-5,"INCLINATION":53.0523,"RA_OF_ASC_NODE":185.9826,"ARG_OF_PERICENTER":86.0008,"MEAN_ANOMALY":123.8891,"EPHEMERIS_TYPE":0,"CLASSIFICATION_TYPE":"U","NORAD_CAT_ID":46173,"ELEMENT_SET_NO":999,"REV_AT_EPOCH":574,"BSTAR":0.0019120782,"MEAN_MOTION_DOT":0.00075904,"MEAN_MOTION_DDOT":0},{"OBJECT_NAME":"STARLINK-1641","OBJECT_ID":"2020-057BK","EPOCH":"2026-01-16T20:42:51.547104","MEAN_MOTION":15.42315434,"ECCENTRICITY":0.00023799,"INCLINATION":53.0499,"RA_OF_ASC_NODE":172.1008,"ARG_OF_PERICENTER":145.5471,"MEAN_ANOMALY":214.5688,"EPHEMERIS_TYPE":0,"CLASSIFICATION_TYPE":"U","NORAD_CAT_ID":46174,"ELEMENT_SET_NO":999,"REV_AT_EPOCH":29849,"BSTAR":0.00055974276,"MEAN_MOTION_DOT":0.00024152,"MEAN_MOTION_DDOT":0},{"OBJECT_NAME":"STARLINK-1654","OBJECT_ID":"2020-062B","EPOCH":"2026-01-16T21:33:14.015232","MEAN_MOTION":15.54342665,"ECCENTRICITY":0.00155826,"INCLINATION":53.0485,"RA_OF_ASC_NODE":226.751,"ARG_OF_PERICENTER":128.3423,"MEAN_ANOMALY":231.899,"EPHEMERIS_TYPE":0,"CLASSIFICATION_TYPE":"U","NORAD_CAT_ID":46326,"ELEMENT_SET_NO":999,"REV_AT_EPOCH":29682,"BSTAR":0.0023233149,"MEAN_MOTION_DOT":0.00158186,"MEAN_MOTION_DDOT":0},{"OBJECT_NAME":"STARLINK-1686","OBJECT_ID":"2020-062D","EPOCH":"2026-01-16T21:40:09.200064","MEAN_MOTION":15.51853133,"ECCENTRICITY":0.00152782,"INCLINATION":53.0477,"RA_OF_ASC_NODE":207.2408,"ARG_OF_PERICENTER":137.6375,"MEAN_ANOMALY":222.5816,"EPHEMERIS_TYPE":0,"CLASSIFICATION_TYPE":"U","NORAD_CAT_ID":46328,"ELEMENT_SET_NO":999,"REV_AT_EPOCH":29709,"BSTAR":0.0029382713,"MEAN_MOTION_DOT":0.0018343,"MEAN_MOTION_DDOT":0},{"OBJECT_NAME":"STARLINK-1695","OBJECT_ID":"2020-062E","EPOCH":"2026-01-16T20:08:35.220192","MEAN_MOTION":15.43922635,"ECCENTRICITY":0.00021349,"INCLINATION":53.0533,"RA_OF_ASC_NODE":224.8543,"ARG_OF_PERICENTER":118.9746,"MEAN_ANOMALY":241.1473,"EPHEMERIS_TYPE":0,"CLASSIFICATION_TYPE":"U","NORAD_CAT_ID":46329,"ELEMENT_SET_NO":999,"REV_AT_EPOCH":29683,"BSTAR":0.0018874359,"MEAN_MOTION_DOT":0.00087743,"MEAN_MOTION_DDOT":0},{"OBJECT_NAME":"STARLINK-1710","OBJECT_ID":"2020-062F","EPOCH":"2026-01-17T00:00:02.000160","MEAN_MOTION":15.70712703,"ECCENTRICITY":0.00050781,"INCLINATION":53.0375,"RA_OF_ASC_NODE":179.6207,"ARG_OF_PERICENTER":190.4275,"MEAN_ANOMALY":321.5506,"EPHEMERIS_TYPE":0,"CLASSIFICATION_TYPE":"U","NORAD_CAT_ID":46330,"ELEMENT_SET_NO":999,"REV_AT_EPOCH":553,"BSTAR":0.0018998287,"MEAN_MOTION_DOT":0.00246762,"MEAN_MOTION_DDOT":0},{"OBJECT_NAME":"STARLINK-1719","OBJECT_ID":"2020-062G","EPOCH":"2026-01-16T23:35:43.939680","MEAN_MOTION":15.46916977,"ECCENTRICITY":0.00149847,"INCLINATION":53.048,"RA_OF_ASC_NODE":227.8718,"ARG_OF_PERICENTER":118.6839,"MEAN_ANOMALY":241.5676,"EPHEMERIS_TYPE":0,"CLASSIFICATION_TYPE":"U","NORAD_CAT_ID":46331,"ELEMENT_SET_NO":999,"REV_AT_EPOCH":29681,"BSTAR":0.0023438582,"MEAN_MOTION_DOT":0.00121862,"MEAN_MOTION_DDOT":0},{"OBJECT_NAME":"STARLINK-1723","OBJECT_ID":"2020-062J","EPOCH":"2026-01-17T00:00:02.000160","MEAN_MOTION":15.70190185,"ECCENTRICITY":0.00154727,"INCLINATION":53.0478,"RA_OF_ASC_NODE":224.3641,"ARG_OF_PERICENTER":102.3429,"MEAN_ANOMALY":102.2729,"EPHEMERIS_TYPE":0,"CLASSIFICATION_TYPE":"U","NORAD_CAT_ID":46333,"ELEMENT_SET_NO":999,"REV_AT_EPOCH":587,"BSTAR":0.0018025175,"MEAN_MOTION_DOT":0.00229831,"MEAN_MOTION_DDOT":0},{"OBJECT_NAME":"STARLINK-1727","OBJECT_ID":"2020-062L","EPOCH":"2026-01-16T18:32:49.903584","MEAN_MOTION":15.52707153,"ECCENTRICITY":0.00169778,"INCLINATION":53.0482,"RA_OF_ASC_NODE":229.4777,"ARG_OF_PERICENTER":129.1134,"MEAN_ANOMALY":231.1388,"EPHEMERIS_TYPE":0,"CLASSIFICATION_TYPE":"U","NORAD_CAT_ID":46335,"ELEMENT_SET_NO":999,"REV_AT_EPOCH":29677,"BSTAR":0.0024303065,"MEAN_MOTION_DOT":0.00156023,"MEAN_MOTION_DDOT":0},{"OBJECT_NAME":"STARLINK-1738","OBJECT_ID":"2020-062M","EPOCH":"2026-01-17T00:00:02.000160","MEAN_MOTION":15.67681691,"ECCENTRICITY":0.00075977,"INCLINATION":53.0385,"RA_OF_ASC_NODE":181.1277,"ARG_OF_PERICENTER":232.1328,"MEAN_ANOMALY":157.3788,"EPHEMERIS_TYPE":0,"CLASSIFICATION_TYPE":"U","NORAD_CAT_ID":46336,"ELEMENT_SET_NO":999,"REV_AT_EPOCH":594,"BSTAR":0.0019240853,"MEAN_MOTION_DOT":0.00219959,"MEAN_MOTION_DDOT":0},{"OBJECT_NAME":"STARLINK-1750","OBJECT_ID":"2020-062N","EPOCH":"2026-01-17T00:00:02.000160","MEAN_MOTION":15.70022748,"ECCENTRICITY":0.00035497,"INCLINATION":53.0394,"RA_OF_ASC_NODE":192.8737,"ARG_OF_PERICENTER":121.9603,"MEAN_ANOMALY":307.0785,"EPHEMERIS_TYPE":0,"CLASSIFICATION_TYPE":"U","NORAD_CAT_ID":46337,"ELEMENT_SET_NO":999,"REV_AT_EPOCH":584,"BSTAR":0.0022923183,"MEAN_MOTION_DOT":0.00290893,"MEAN_MOTION_DDOT":0},{"OBJECT_NAME":"STARLINK-1752","OBJECT_ID":"2020-062P","EPOCH":"2026-01-17T00:00:02.000160","MEAN_MOTION":15.63721103,"ECCENTRICITY":0.00170558,"INCLINATION":53.0463,"RA_OF_ASC_NODE":225.1703,"ARG_OF_PERICENTER":116.946,"MEAN_ANOMALY":304.161,"EPHEMERIS_TYPE":0,"CLASSIFICATION_TYPE":"U","NORAD_CAT_ID":46338,"ELEMENT_SET_NO":999,"REV_AT_EPOCH":592,"BSTAR":0.0023303983,"MEAN_MOTION_DOT":0.00228898,"MEAN_MOTION_DDOT":0},{"OBJECT_NAME":"STARLINK-1759","OBJECT_ID":"2020-062R","EPOCH":"2026-01-16T22:31:48.940032","MEAN_MOTION":15.4600829,"ECCENTRICITY":0.00095003,"INCLINATION":53.0285,"RA_OF_ASC_NODE":220.2191,"ARG_OF_PERICENTER":141.8008,"MEAN_ANOMALY":218.3672,"EPHEMERIS_TYPE":0,"CLASSIFICATION_TYPE":"U","NORAD_CAT_ID":46340,"ELEMENT_SET_NO":999,"REV_AT_EPOCH":29690,"BSTAR":0.0006226462,"MEAN_MOTION_DOT":0.00030611,"MEAN_MOTION_DDOT":0},{"OBJECT_NAME":"STARLINK-1762","OBJECT_ID":"2020-062T","EPOCH":"2026-01-16T23:06:13.235616","MEAN_MOTION":15.06406672,"ECCENTRICITY":0.00014862,"INCLINATION":53.0548,"RA_OF_ASC_NODE":248.8295,"ARG_OF_PERICENTER":91.4844,"MEAN_ANOMALY":268.6315,"EPHEMERIS_TYPE":0,"CLASSIFICATION_TYPE":"U","NORAD_CAT_ID":46342,"ELEMENT_SET_NO":999,"REV_AT_EPOCH":29651,"BSTAR":0.0001739628,"MEAN_MOTION_DOT":2.311e-5,"MEAN_MOTION_DDOT":0},{"OBJECT_NAME":"STARLINK-1764","OBJECT_ID":"2020-062U","EPOCH":"2026-01-16T17:21:10.392480","MEAN_MOTION":15.50896608,"ECCENTRICITY":0.00155962,"INCLINATION":53.0489,"RA_OF_ASC_NODE":209.7888,"ARG_OF_PERICENTER":133.6914,"MEAN_ANOMALY":226.5389,"EPHEMERIS_TYPE":0,"CLASSIFICATION_TYPE":"U","NORAD_CAT_ID":46343,"ELEMENT_SET_NO":999,"REV_AT_EPOCH":29704,"BSTAR":0.0020054919,"MEAN_MOTION_DOT":0.00119902,"MEAN_MOTION_DDOT":0},{"OBJECT_NAME":"STARLINK-1765","OBJECT_ID":"2020-062V","EPOCH":"2026-01-17T00:00:02.000160","MEAN_MOTION":15.62597101,"ECCENTRICITY":0.0009151,"INCLINATION":53.0456,"RA_OF_ASC_NODE":198.9812,"ARG_OF_PERICENTER":123.0645,"MEAN_ANOMALY":353.4926,"EPHEMERIS_TYPE":0,"CLASSIFICATION_TYPE":"U","NORAD_CAT_ID":46344,"ELEMENT_SET_NO":999,"REV_AT_EPOCH":583,"BSTAR":0.0028780929,"MEAN_MOTION_DOT":0.00270695,"MEAN_MOTION_DDOT":0},{"OBJECT_NAME":"STARLINK-1767","OBJECT_ID":"2020-062W","EPOCH":"2026-01-17T00:00:02.000160","MEAN_MOTION":15.8603096,"ECCENTRICITY":0.00045201,"INCLINATION":53.032,"RA_OF_ASC_NODE":193.0704,"ARG_OF_PERICENTER":215.3405,"MEAN_ANOMALY":342.7568,"EPHEMERIS_TYPE":0,"CLASSIFICATION_TYPE":"U","NORAD_CAT_ID":46345,"ELEMENT_SET_NO":999,"REV_AT_EPOCH":597,"BSTAR":0.0013411751,"MEAN_MOTION_DOT":0.00351167,"MEAN_MOTION_DDOT":0},{"OBJECT_NAME":"STARLINK-1547","OBJECT_ID":"2020-062Y","EPOCH":"2026-01-17T00:00:02.000160","MEAN_MOTION":15.49638347,"ECCENTRICITY":0.00026832,"INCLINATION":53.041,"RA_OF_ASC_NODE":169.4635,"ARG_OF_PERICENTER":179.057,"MEAN_ANOMALY":6.4034,"EPHEMERIS_TYPE":0,"CLASSIFICATION_TYPE":"U","NORAD_CAT_ID":46347,"ELEMENT_SET_NO":999,"REV_AT_EPOCH":590,"BSTAR":0.0020994292,"MEAN_MOTION_DOT":0.00119515,"MEAN_MOTION_DDOT":0}]
